[{"OBJECT_NAME":"HULIANWANG DIGUI-97","OBJECT_ID":"2025-258B","EPOCH":"2026-03-09T22:14:55.188096","MEAN_MOTION":13.29332898,"ECCENTRICITY":4.789e-5,"INCLINATION":50.0009,"RA_OF_ASC_NODE":291.896,"ARG_OF_PERICENTER":112.8289,"MEAN_ANOMALY":247.2634,"EPHEMERIS_TYPE":0,"CLASSIFICATION_TYPE":"U","NORAD_CAT_ID":66413,"ELEMENT_SET_NO":999,"REV_AT_EPOCH":1652,"BSTAR":0.00011348329,"MEAN_MOTION_DOT":-7.1e-7,"MEAN_MOTION_DDOT":0},{"OBJECT_NAME":"DELTA 1 DEB","OBJECT_ID":"1975-052DW","EPOCH":"2026-03-08T17:49:22.175328","MEAN_MOTION":13.31008227,"ECCENTRICITY":0.00797502,"INCLINATION":99.728,"RA_OF_ASC_NODE":348.1339,"ARG_OF_PERICENTER":158.2866,"MEAN_ANOMALY":260.1259,"EPHEMERIS_TYPE":0,"CLASSIFICATION_TYPE":"U","NORAD_CAT_ID":21438,"ELEMENT_SET_NO":999,"REV_AT_EPOCH":69088,"BSTAR":0.00073328319,"MEAN_MOTION_DOT":3.13e-6,"MEAN_MOTION_DDOT":0}]
